STARLINK-32586          
1 61975U 24210S   26068.32436363  .00036536  00000+0  13301-2 0  9991
2 61975  43.0023 181.9245 0002723 285.0175  75.0375 15.27591735 74827
HAWK-11A                
1 62382U 24247F   26068.51231358  .00009457  00000+0  34106-3 0  9991
2 62382  44.9941 114.3328 0005466 327.3713  32.6832 15.28849427 67741
